OBJECTID,the_geom,Boro,Type,Provider,Park_Wifi,Location,Lat,Long_,X,Y,Location_T,Remarks,City,Zip
1,POINT (-74.19100000051876 40.517299999596645),SI,Limited Free,TimeWarner,Wolfe's Pond Park,Back of the Comfort Station,40.5172999996,-74.1910000005,931144.268929,127800.859934,,,Staten Island,
2,POINT (-74.19030000015196 40.5169999995916),SI,Limited Free,TimeWarner,Wolfe's Pond Park,Southwestern corner of the South Parking Lot,40.5169999996,-74.1903000002,931338.659617,127691.139681,,,Staten Island,
3,POINT (-74.18980000021902 40.518200000311104),SI,Limited Free,TimeWarner,Wolfe's Pond Park,Near the Chester Avenue Entrance to the South Parking Lot,40.5182000003,-74.1898000002,931478.627513,128128.024962,,,Staten Island,
4,POINT (-74.189799999422 40.517100000232666),SI,Limited Free,TimeWarner,Wolfe's Pond Park,Beach Side of the South Parking Lot,40.5171000002,-74.1897999994,931477.759404,127727.270514,,,Staten Island,
5,POINT (-74.1882000001661 40.51920000044687),SI,Limited Free,TimeWarner,Wolfe's Pond Park,North Parking Lot,40.5192000004,-74.1882000002,931924.268354,128491.387424,,,Staten Island,
6,POINT (-74.1392200000559 40.59194999955727),SI,Limited Free,TimeWarner,Blood Root Valley,Front of building,40.5919499996,-74.1392200001,945584.414918,154970.486041,,,Staten Island,
7,POINT (-74.13920000031035 40.59189999967201),SI,Limited Free,TimeWarner,Blood Root Valley,Parking Lot behind building closest to soccer field,40.5918999997,-74.1392000003,945589.940497,154952.261012,,,Staten Island,
8,POINT (-74.13850000040958 40.59189999991934),SI,Limited Free,TimeWarner,Blood Root Valley,First Floor,40.5918999999,-74.1385000004,945784.351526,154951.952941,,,Staten Island,
9,POINT (-74.13811999965026 40.59203000039661),SI,Limited Free,TimeWarner,Blood Root Valley,Second Floor,40.5920300004,-74.1381199997,945889.963847,154999.148713,,,Staten Island,
10,POINT (-74.13809999953877 40.59200000006126),SI,Limited Free,TimeWarner,Blood Root Valley,Parking Lot behind building closest to soccer field,40.5920000001,-74.1380999995,945895.501238,154988.210087,,,Staten Island,
11,POINT (-74.11469999982174 40.62609999955853),SI,Limited Free,TimeWarner,Barrett Park,Near Main Entrance,40.6260999996,-74.1146999998,952410.644048,167402.336505,,,Staten Island,
12,POINT (-74.11440000051014 40.62469999956508),SI,Limited Free,TimeWarner,Barrett Park,Benches at Southeast corner in the park,40.6246999996,-74.1144000005,952493.254119,166892.170859,,,Staten Island,
13,POINT (-74.11419999992395 40.62470000029192),SI,Limited Free,TimeWarner,Barrett Park,"Southeast Corner of the Park, in front of YMCA",40.6247000003,-74.1141999999,952548.773036,166892.09868,,,Staten Island,
14,POINT (-74.10821499985445 40.617979999873995),SI,Limited Free,TimeWarner,Clove Lakes Park,Park Building South Hallway,40.6179799999,-74.1082149999,954207.147344,164441.717754,,,Staten Island,
15,POINT (-74.10820000023864 40.618000000163505),SI,Limited Free,TimeWarner,Clove Lakes Park,Near Lakehouse Restaurant,40.6180000002,-74.1082000002,954211.320564,164448.999236,,,Staten Island,
17,POINT (-74.10716999982802 40.618977000406396),SI,Limited Free,TimeWarner,Clove Lakes Park,Park Building Main Lobby,40.6189770004,-74.1071699998,954497.706474,164804.594325,,,Staten Island,
18,POINT (-74.10709999973253 40.61939999992896),SI,Limited Free,TimeWarner,Clove Lakes Park,Lakehouse Restaurant,40.6193999999,-74.1070999997,954517.328154,164958.680303,,,Staten Island,
19,POINT (-74.10699999961889 40.618999999586286),SI,Limited Free,TimeWarner,Clove Lakes Park,Park Building Main Hallway,40.6189999996,-74.1069999996,954544.911761,164812.915831,,,Staten Island,
20,POINT (-74.10339999941979 40.64549999991016),SI,Limited Free,TimeWarner,Snug Harbor Cultural Center,North Entrance of Randall Garden,40.6454999999,-74.1033999994,955555.731261,174466.369949,,,Staten Island,
21,POINT (-74.10290000005486 40.645400000030676),SI,Limited Free,TimeWarner,Snug Harbor Cultural Center,North Entrance of Randall Garden,40.6454,-74.1029000001,955694.441942,174429.773894,,,Staten Island,
22,POINT (-74.10229999941437 40.645299999626666),SI,Limited Free,TimeWarner,Snug Harbor Cultural Center,Snug Harbor Dock,40.6452999996,-74.1022999994,955860.904207,174393.146014,,,Staten Island,
23,POINT (-74.10169999948405 40.64509999980328),SI,Limited Free,TimeWarner,Snug Harbor Cultural Center,Snug Harbor Dock,40.6450999998,-74.1016999995,956027.324478,174320.086777,,,Staten Island,
24,POINT (-74.10109999960952 40.644900000450264),SI,Limited Free,TimeWarner,Snug Harbor Cultural Center,Neptune Fountain,40.6449000005,-74.1010999996,956193.745733,174247.028852,,,Staten Island,
25,POINT (-74.10029999958434 40.64469999967307),SI,Limited Free,TimeWarner,Snug Harbor Cultural Center,Neptune Fountain,40.6446999997,-74.1002999996,956415.670158,174173.907936,,,Staten Island,
26,POINT (-74.09079999991187 40.568400000006555),SI,Limited Free,TimeWarner,Franklin D. Roosevelt Boardwalk and Beach,Near Greeley Avenue Baseball Diamond,40.5684,-74.0907999999,959023.206938,146372.982566,,,Staten Island,
27,POINT (-74.08950000054247 40.56940000004593),SI,Limited Free,TimeWarner,Franklin D. Roosevelt Boardwalk and Beach,Near Midland Beach Veterans Memorial,40.5694,-74.0895000005,959384.755427,146736.935251,,,Staten Island,
28,POINT (-74.0884999997869 40.57020000001418),SI,Limited Free,TimeWarner,Franklin D. Roosevelt Boardwalk and Beach,On the Boardwalk Near Midland Avenue Baseball Diamond,40.5702,-74.0884999998,959662.873966,147028.11249,,,Staten Island,
29,POINT (-74.08729999956151 40.57130000023331),SI,Limited Free,TimeWarner,Franklin D. Roosevelt Boardwalk and Beach,Near Mapleton Avenue Baseball Diamond,40.5713000002,-74.0872999996,959996.658075,147428.534917,,,Staten Island,
30,POINT (-74.0860000000542 40.572299999944995),SI,Limited Free,TimeWarner,Franklin D. Roosevelt Boardwalk and Beach,Near the Hunter Avenue Parking Lot,40.5722999999,-74.0860000001,960358.176381,147792.502037,,,Staten Island,
31,POINT (-74.08440000041436 40.573300000307526),SI,Limited Free,TimeWarner,Franklin D. Roosevelt Boardwalk and Beach,On the Boardwalk Near Jefferson Avenue,40.5733000003,-74.0844000004,960803.026213,148156.394354,,,Staten Island,
32,POINT (-74.08169999982746 40.57470000000106),SI,Limited Free,TimeWarner,Franklin D. Roosevelt Boardwalk and Beach,On the Beach Near the Soccer Field,40.5747,-74.0816999998,961553.582783,148665.737495,,,Staten Island,
33,POINT (-74.08069999952995 40.575700000239365),SI,Limited Free,TimeWarner,Franklin D. Roosevelt Boardwalk and Beach,On the Beach Near the Soccer Field,40.5757000002,-74.0806999995,961831.72035,149029.804681,,,Staten Island,
34,POINT (-74.08069999952995 40.575700000239365),SI,Limited Free,TimeWarner,Franklin D. Roosevelt Boardwalk And Beach,On the Boardwalk Near the Soccer Field,40.5757000002,-74.0806999995,961831.72035,149029.804681,,,Staten Island,
35,POINT (-74.07959999979495 40.576500000439744),BK,Limited Free,Cablevision,Manhattan Beach Park,Park seating area,40.5765000004,-74.0795999998,962137.562586,149320.984873,,,Brooklyn,
36,POINT (-74.07859999951525 40.57709999980001),SI,Limited Free,TimeWarner,Franklin D. Roosevelt Boardwalk and Beach,On the Boardwalk Near Naughton Avenue,40.5770999998,-74.0785999995,962415.553171,149539.328596,,,Staten Island,
37,POINT (-74.07790000004029 40.57769999990479),SI,Limited Free,TimeWarner,Franklin D. Roosevelt Boardwalk And Beach,On the Boardwalk near Buel Avenue,40.5776999999,-74.0779,962610.201732,149757.749747,,,Staten Island,
38,POINT (-74.07729999973017 40.62710000039072),SI,Limited Free,TimeWarner,Tappen Park,Behind Edgewater Village Hall,40.6271000004,-74.0772999997,962792.75747,167755.285602,,,Staten Island,
39,POINT (-74.07679999999982 40.5785000001204),SI,Limited Free,TimeWarner,Franklin D. Roosevelt Boardwalk And Beach,On the Beach Near the Seaview Avenue Entrance,40.5785000001,-74.0768,962916.025596,150048.939782,,,Staten Island,
40,POINT (-74.07639999959414 40.57970000035412),SI,Limited Free,TimeWarner,Franklin D. Roosevelt Boardwalk And Beach,South Parking Lot Near Seaview Avenue,40.5797000004,-74.0763999996,963027.521436,150486.032411,,,Staten Island,
41,POINT (-74.07620000001391 40.62659999958121),SI,Limited Free,TimeWarner,Tappen Park,Fountain,40.6265999996,-74.0762,963097.941242,167572.854537,,,Staten Island,
42,POINT (-74.07579999994975 40.58000000042671),SI,Limited Free,TimeWarner,Franklin D. Roosevelt Boardwalk And Beach,North Parking Lot Near Seaview Avenue,40.5800000004,-74.0757999999,963194.284554,150595.18508,,,Staten Island,
43,POINT (-74.07580000000348 40.62710000044751),SI,Limited Free,TimeWarner,Tappen Park,Fountain,40.6271000004,-74.0758,963209.133277,167754.921758,,,Staten Island,
44,POINT (-74.06749999991041 40.5882000000631),SI,Limited Free,TimeWarner,Franklin D. Roosevelt Boardwalk And Beach,Near South Fin Grill,40.5882000001,-74.0674999999,965502.159203,153580.763755,,,Staten Island,
45,POINT (-74.01789999976982 40.62500000011471),BK,Limited Free,TimeWarner,McKinley Park,Near the Baseball Field at 77th Street,40.6250000001,-74.0178999998,979281.08965,166981.239906,,,Brooklyn,
46,POINT (-74.01730000029302 40.625300000242234),BK,Limited Free,TimeWarner,McKinley Park,Near the Tennis Courts,40.6253000002,-74.0173000003,979447.666745,167090.504452,,,Brooklyn,
47,POINT (-74.01680000049643 40.6266000000948),BK,Limited Free,TimeWarner,McKinley Park,Near the Comfort Station,40.6266000001,-74.0168000005,979586.553278,167564.10193,,,Brooklyn,
48,POINT (-74.01650000028462 40.62590000009953),BK,Limited Free,TimeWarner,McKinley Park,Near the Basketball Courts at Bay Ridge Parkway,40.6259000001,-74.0165000003,979669.78113,167309.057492,,,Brooklyn,
49,POINT (-74.0158000005852 40.626400000433414),BK,Limited Free,TimeWarner,McKinley Park,Near the 73rd Street Entrance,40.6264000004,-74.0158000006,979864.126214,167491.185081,,,Brooklyn,
51,POINT (-74.00869999956802 40.67720000019498),BK,Limited Free,TimeWarner,Coffey Park,Near the Baseball Field,40.6772000002,-74.0086999996,981836.831914,185998.752724,,,Brooklyn,
52,POINT (-74.00869999956802 40.67720000019498),BK,Limited Free,TimeWarner,Coffey Park,Near the Playground,40.6772000002,-74.0086999996,981836.831914,185998.752724,,,Brooklyn,
53,POINT (-74.00869999956802 40.67720000019498),BK,Limited Free,TimeWarner,Coffey Park,Between the Basketball Court and Comfort Station,40.6772000002,-74.0086999996,981836.831914,185998.752724,,,Brooklyn,
54,POINT (-74.00869999956802 40.67720000019498),BK,Limited Free,TimeWarner,Coffey Park,Between the Basketball Court and Comfort Station,40.6772000002,-74.0086999996,981836.831914,185998.752724,,,Brooklyn,
55,POINT (-73.78691254324045 40.67689173294203),QU,Limited Free,TimeWarner,Baisley Pond Park,Near gazebo,40.6768917329,-73.7869125432,1043355.48808,185958.211795,,,Queens,
56,POINT (-74.00819999948651 40.67329999978824),BK,Limited Free,TimeWarner,Red Hook Recreation Area,Near the Columbia Street and Bay Street Intersection,40.6732999998,-74.0081999995,981975.386755,184577.8576,,,Brooklyn,
57,POINT (-74.00690000010826 40.673000000150665),BK,Limited Free,TimeWarner,Red Hook Recreation Area,Near the Hicks Street and Bay Street Intersection,40.6730000002,-74.0069000001,982335.987412,184468.528094,,,Brooklyn,
59,POINT (-74.0056000000465 40.729699999864145),MN,Limited Free,TimeWarner,Tony Dapolto Recreation Center,Near the Pool,40.7296999999,-74.0056,982697.919103,205126.002856,,,New York,
60,POINT (-74.00549999941796 40.67260000013773),BK,Limited Free,TimeWarner,Red Hook Recreation Area,Near the Bay Street Baseball Diamonds,40.6726000001,-74.0054999994,982724.328827,184322.7692,,,Brooklyn,
61,POINT (-74.0054999997407 40.729599999608425),MN,Limited Free,TimeWarner,Tony Dapolto Recreation Center,Computer Resource Center,40.7295999996,-74.0054999997,982725.63263,205089.567889,,,New York,
62,POINT (-74.00549299983696 40.729566000341705),MN,Limited Free,TimeWarner,Tony Dapolto Recreation Center,Afterschool Room,40.7295660003,-74.0054929998,982727.571931,205077.180775,,,New York,
63,POINT (-74.00549299983696 40.729566000341705),MN,Limited Free,TimeWarner,Tony Dapolto Recreation Center,Basketball Court,40.7295660003,-74.0054929998,982727.571931,205077.180775,,,New York,
64,POINT (-74.00549299983696 40.729566000341705),MN,Limited Free,TimeWarner,Tony Dapolto Recreation Center,Lobby,40.7295660003,-74.0054929998,982727.571931,205077.180775,,,New York,
65,POINT (-74.00489999994976 40.67300000005581),BK,Limited Free,TimeWarner,Red Hook Recreation Area,Around Henry Street,40.6730000001,-74.0048999999,982890.773704,184468.490693,,,Brooklyn,
66,POINT (-74.00410000014637 40.67220000017989),BK,Limited Free,TimeWarner,Red Hook Recreation Area,Near Red Hook Recreation Center,40.6722000002,-74.0041000001,983112.674507,184177.016538,,,Brooklyn,
67,POINT (-74.00369999958477 40.671199999662825),BK,Limited Free,TimeWarner,Red Hook Recreation Area,Between the Soccer Fields on Clinton Street,40.6711999997,-74.0036999996,983223.617855,183812.682949,,,Brooklyn,
69,POINT (-74.00194500014669 40.74805700044861),MN,Limited Free,TimeWarner,Chelsea Recreation Center,Basketball Court,40.7480570004,-74.0019450001,983711.07751,211813.995385,,,New York,
70,POINT (-74.00194500014669 40.74805700044861),MN,Limited Free,TimeWarner,Chelsea Recreation Center,Weight Room,40.7480570004,-74.0019450001,983711.07751,211813.995385,,,New York,
71,POINT (-74.00194500014669 40.74805700044861),MN,Limited Free,TimeWarner,Chelsea Recreation Center,Cardio Room,40.7480570004,-74.0019450001,983711.07751,211813.995385,,,New York,
72,POINT (-74.00194500014669 40.74805700044861),MN,Limited Free,TimeWarner,Chelsea Recreation Center,Basketball Court,40.7480570004,-74.0019450001,983711.07751,211813.995385,,,New York,
73,POINT (-74.00189999959609 40.748100000371494),MN,Limited Free,TimeWarner,Chelsea Recreation Center,Third Floor,40.7481000004,-74.0018999996,983723.546645,211829.661364,,,New York,
75,POINT (-73.99540000017133 40.68059999984622),BK,Limited Free,TimeWarner,Carroll Park,Track and Field,40.6805999998,-73.9954000002,985525.862922,187237.384105,,,Brooklyn,
76,POINT (-73.99059999943874 40.696599999980876),BK,Limited Free,TimeWarner,Cadman Plaza Park,Track and Field - South Entrance of Brooklyn War Memorial,40.6966,-73.9905999994,986856.572859,193066.757945,,,Brooklyn,
77,POINT (-73.99039999985484 40.73599999973612),MN,Partner Site,Partner,Union Square Park,Entire park,40.7359999997,-73.9903999999,986910.458578,207421.386388,,,New York,
78,POINT (-73.98889999981347 40.74150000029479),MN,Limited Free,TimeWarner,Madison Square Park,Statue - South West of Park,40.7415000003,-73.9888999998,987325.901317,209425.259677,,,New York,
79,POINT (-73.98870000050285 40.74239999977662),MN,Limited Free,TimeWarner,Madison Square Park,Dog Run,40.7423999998,-73.9887000005,987381.280471,209753.165189,,,New York,
80,POINT (-73.98830000006245 40.743100000396325),MN,Limited Free,TimeWarner,Madison Square Park,Benches - West North of Park,40.7431000004,-73.9883000001,987492.08832,210008.212251,,,New York,
81,POINT (-73.98789999969809 40.74109999968384),MN,Limited Free,TimeWarner,Madison Square Park,Bathroom,40.7410999997,-73.9878999997,987603.029699,209279.563446,,,New York,
82,POINT (-73.98740000031546 40.74189999976801),MN,Limited Free,TimeWarner,Madison Square Park,Benches - East of Park,40.7418999998,-73.9874000003,987741.542546,209571.048427,,,New York,
83,POINT (-73.98689999983418 40.7425000004071),MN,Limited Free,TimeWarner,Madison Square Park,Playground,40.7425000004,-73.9868999998,987880.063266,209789.668069,,,New York,
84,POINT (-73.98613600042681 40.57266799958096),BK,Limited Free,Cablevision,Steeplechase Park,Stark Ice Rink 1,40.5726679996,-73.9861360004,988101.563479,147915.150086,,,Brooklyn,
85,POINT (-73.98593600054636 40.5726649999364),BK,Limited Free,Cablevision,Steeplechase Park,Stark Ice Rink 2,40.5726649999,-73.9859360005,988157.125704,147914.066099,,,Brooklyn,
86,POINT (-73.98574999992672 40.57267800040087),BK,Limited Free,Cablevision,Steeplechase Park,Stark Ice Rink 3,40.5726780004,-73.9857499999,988208.797845,147918.81084,,,Brooklyn,
87,POINT (-73.98561700040108 40.57280799976454),BK,Limited Free,Cablevision,Steeplechase Park,Stark Ice Rink 6,40.5728079998,-73.9856170004,988245.738716,147966.178855,,,Brooklyn,
88,POINT (-73.98560899989067 40.57268499971138),BK,Limited Free,Cablevision,Steeplechase Park,Stark Ice Rink 4,40.5726849997,-73.9856089999,988247.968698,147921.367265,,,Brooklyn,
89,POINT (-73.98560100047878 40.572694000352826),BK,Limited Free,Cablevision,Steeplechase Park,Stark Ice Rink 5,40.5726940004,-73.9856010005,988250.190479,147924.646786,,,Brooklyn,
90,POINT (-73.98529999991668 40.62329999995198),BK,Limited Free,Cablevision,Gravesend Park,Benches,40.6233,-73.9852999999,988330.717548,166361.719492,,,Brooklyn,
91,POINT (-73.98500000025803 40.78600000006445),MN,Limited Free,TimeWarner,Riverside Park,On the Hudson River Greenway,40.7860000001,-73.9850000003,988403.846995,225638.236765,,,New York,
92,POINT (-73.984799999802 40.57499999991935),BK,Limited Free,Cablevision,Steeplechase Park,Front of MCU Park,40.5749999999,-73.9847999998,988472.570939,148764.817022,,,Brooklyn,
93,POINT (-73.98479999989377 40.753700000186676),MN,Limited Free,TimeWarner,Bryant Park,Southwest Porch,40.7537000002,-73.9847999999,988461.273718,213870.281627,,,New York,
94,POINT (-73.98469999964468 40.62299999982166),BK,Limited Free,Cablevision,Gravesend Park,Benches,40.6229999998,-73.9846999996,988497.296612,166252.450025,,,Brooklyn,
95,POINT (-73.98440000037577 40.624199999832065),BK,Limited Free,Cablevision,Gravesend Park,Playground,40.6241999998,-73.9844000004,988580.498873,166689.6565,,,Brooklyn,
96,POINT (-73.98420000050557 40.75440000030879),MN,Limited Free,TimeWarner,Bryant Park,Witchcraft Express,40.7544000003,-73.9842000005,988627.462034,214125.343781,,,New York,
97,POINT (-73.98399999956165 40.753199999610125),MN,Limited Free,TimeWarner,Bryant Park,Seating area near Bryant Park Grill,40.7531999996,-73.9839999996,988682.953064,213688.154694,,,New York,
98,POINT (-73.98360000014983 40.62379999994013),BK,Limited Free,Cablevision,Gravesend Park,Playground,40.6237999999,-73.9836000001,988802.603088,166543.966503,,,Brooklyn,
99,POINT (-73.98330000006452 40.75379999983928),MN,Partner Site,Partner,Bryant Park,Entire park,40.7537999998,-73.9833000001,988876.852939,213906.790412,,,New York,
100,POINT (-73.98310000030038 40.75429999973936),MN,Limited Free,TimeWarner,Bryant Park,Track and Field - North East of Park,40.7542999997,-73.9831000003,988932.229141,214088.967213,,,New York,
101,POINT (-73.98289999988184 40.62350000043622),BK,Limited Free,Cablevision,Gravesend Park,Playground,40.6235000004,-73.9828999999,988996.942922,166434.705894,,,Brooklyn,
102,POINT (-73.98211200024944 40.5751149997122),BK,Limited Free,Cablevision,Steeplechase Park,3001-3025 W 15th St,40.5751149997,-73.9821120002,989219.290574,148806.855323,,,Brooklyn,
103,POINT (-73.98194099957998 40.57405600033764),BK,Limited Free,Cablevision,Steeplechase Park,3027-3087 W 15th St 2,40.5740560003,-73.9819409996,989266.874141,148421.0454,,,Brooklyn,
104,POINT (-73.98184500018228 40.573602000185076),BK,Limited Free,Cablevision,Steeplechase Park,3027-3087 W 15th St,40.5736020002,-73.9818450002,989293.577499,148255.647436,,,Brooklyn,
105,POINT (-73.9818130004052 40.57322899966027),BK,Limited Free,Cablevision,Steeplechase Park,3089-3099 W 15th St,40.5732289997,-73.9818130004,989302.495461,148119.755976,,,Brooklyn,
106,POINT (-73.98180000030942 40.75269999956923),MN,Limited Free,TimeWarner,Bryant Park,Library Steps,40.7526999996,-73.9818000003,989292.521727,213506.107486,,,New York,
107,POINT (-73.98180000036936 40.71949999992671),MN,Limited Free,TimeWarner,Hamilton Fish Park,Lobby,40.7194999999,-73.9818000004,989295.034846,201410.301954,,,New York,
108,POINT (-73.98180000037456 40.726399999973545),SI,Limited Free,TimeWarner,Tompkinsville Park,Entire triangle,40.7264,-73.9818000004,989294.512537,203924.184721,,,Staten Island,
109,POINT (-73.98149999986182 40.7198000001703),MN,Limited Free,TimeWarner,Hamilton Fish Park,Outside Hamilton Fish Recreation Center,40.7198000002,-73.9814999999,989378.171818,201519.618664,,,New York,
110,POINT (-73.98150000050967 40.71989999997807),MN,Limited Free,TimeWarner,Hamilton Fish Park,Lobby,40.7199,-73.9815000005,989378.163944,201556.051662,,,New York,
112,POINT (-73.98130000034344 40.720099999697084),MN,Limited Free,TimeWarner,Hamilton Fish Park,Outside Hamilton Fish Recreation Center,40.7200999997,-73.9813000003,989433.588046,201628.929469,,,New York,
113,POINT (-73.98039400009905 40.573428999679365),BK,Limited Free,Cablevision,Steeplechase Park,Brooklyn Beach Shop 2,40.5734289997,-73.9803940001,989696.688898,148192.705961,,,Brooklyn,
114,POINT (-73.9803629996107 40.57327199963629),BK,Limited Free,Cablevision,Steeplechase Park,Brooklyn Beach Shop,40.5732719996,-73.9803629996,989705.313881,148135.508897,,,Brooklyn,
115,POINT (-73.98029799949774 40.57324600026871),BK,Limited Free,Cablevision,Steeplechase Park,Ruby's Bar & Grill,40.5732460003,-73.9802979995,989723.373556,148126.04074,,,Brooklyn,
116,POINT (-73.98008300002513 40.573269999995524),BK,Limited Free,Cablevision,Steeplechase Park,Lola Star Sovenir Boutique,40.57327,-73.980083,989783.100142,148134.797941,,,Brooklyn,
117,POINT (-73.97982900002123 40.573286000323186),BK,Limited Free,Cablevision,Steeplechase Park,Nathan's Famous,40.5732860003,-73.979829,989853.662009,148140.643401,,,Brooklyn,
118,POINT (-73.97979900017532 40.57343700041107),BK,Limited Free,Cablevision,Steeplechase Park,Nathan's Famous 2,40.5734370004,-73.9797990002,989861.983515,148195.658383,,,Brooklyn,
119,POINT (-73.97899400029993 40.57341500030225),BK,Limited Free,Cablevision,Steeplechase Park,Familia Pizzeria,40.5734150003,-73.9789940003,990085.620207,148187.695801,,,Brooklyn,
120,POINT (-73.97896699968057 40.57341499986452),BK,Limited Free,Cablevision,Steeplechase Park,Coney Cones,40.5734149999,-73.9789669997,990093.121176,148187.697441,,,Brooklyn,
121,POINT (-73.97884900051028 40.57340300032236),BK,Limited Free,Cablevision,Steeplechase Park,Coney Cones 2,40.5734030003,-73.9788490005,990125.903263,148183.333605,,,Brooklyn,
122,POINT (-73.9785220001246 40.57341899960518),BK,Limited Free,Cablevision,Steeplechase Park,Paul's Daughter,40.5734189996,-73.9785220001,990216.744944,148189.184643,,,Brooklyn,
123,POINT (-73.97827499943244 40.573444000349106),BK,Limited Free,Cablevision,Steeplechase Park,Paul's Daughter 2,40.5734440003,-73.9782749994,990285.361277,148198.309953,,,Brooklyn,
125,POINT (-73.97808700000557 40.574704000127774),BK,Limited Free,Cablevision,Steeplechase Park,3000-3098 W 10th St 2,40.5747040001,-73.978087,990337.474034,148657.372027,,,Brooklyn,
126,POINT (-73.97807599941811 40.574289000336435),BK,Limited Free,Cablevision,Steeplechase Park,3000-3098 W 10th St,40.5742890003,-73.9780759994,990340.567859,148506.178103,,,Brooklyn,
127,POINT (-73.97800100016316 40.57516900009603),BK,Limited Free,Cablevision,Steeplechase Park,3000-3098 W 10th St 3,40.5751690001,-73.9780010002,990361.322411,148826.789011,,,Brooklyn,
128,POINT (-73.97795799967454 40.573522999713774),BK,Limited Free,Cablevision,Steeplechase Park,Aquarium 1,40.5735229997,-73.9779579997,990373.418844,148227.113373,,,Brooklyn,
129,POINT (-73.97775500046133 40.57352300020727),BK,Limited Free,Cablevision,Steeplechase Park,Aquarium 2,40.5735230002,-73.9777550005,990429.813416,148227.127808,,,Brooklyn,
130,POINT (-73.97727200011254 40.57354700009807),BK,Limited Free,Cablevision,Steeplechase Park,Aquarium 3,40.5735470001,-73.9772720001,990563.991953,148235.906006,,,Brooklyn,
131,POINT (-73.97640000056663 40.662800000239926),BK,Limited Free,TimeWarner,Prospect Park,Bandshell near West Dr,40.6628000002,-73.9764000006,990797.478691,180753.186116,,,Brooklyn,
132,POINT (-73.97580000029322 40.66300000000024),BK,Limited Free,TimeWarner,Prospect Park,Bandshell near West Dr,40.663,-73.9758000003,990963.919959,180826.097059,,,Brooklyn,
134,POINT (-73.97549999971129 40.663500000336484),BK,Limited Free,TimeWarner,Prospect Park,Park - East of Bandshell,40.6635000003,-73.9754999997,991047.099583,181008.284359,,,Brooklyn,
138,POINT (-73.96040000044236 40.71500000011233),BK,Limited Free,TimeWarner,Metropolitan Recreation Center,Lobby,40.7150000001,-73.9604000004,995227.849752,199772.771764,,,Brooklyn,
140,POINT (-73.94999999947733 40.74999999998571),MN,Limited Free,TimeWarner,Recreation Center 54,Basketball Court,40.75,-73.9499999995,998103.642884,212525.840418,,,New York,
141,POINT (-73.94700000010523 40.57609999995282),BK,Limited Free,Cablevision,Manhattan Beach Park,Park seating area,40.5761,-73.9470000001,998973.194623,149169.662012,,,Brooklyn,
142,POINT (-73.94649999972145 40.689900000101204),BK,Limited Free,Cablevision,Herbert Von King Park,Multi-purpose room,40.6899000001,-73.9464999997,999086.770839,190630.141755,,,Brooklyn,
144,POINT (-73.94599999977693 40.57620000037025),BK,Limited Free,Cablevision,Manhattan Beach Park,Park seating area,40.5762000004,-73.9459999998,999250.968346,149206.264302,,,Brooklyn,
145,POINT (-73.94550000031184 40.576200000196856),BK,Limited Free,Cablevision,Manhattan Beach Park,Park seating area,40.5762000002,-73.9455000003,999389.866034,149206.350259,,,Brooklyn,
146,POINT (-73.94540000023966 40.57589999971575),BK,Limited Free,Cablevision,Manhattan Beach Park,Pathway to Beach,40.5758999997,-73.9454000002,999417.713747,149097.069966,,,Brooklyn,
147,POINT (-73.94460000049874 40.577700000075616),BK,Limited Free,Cablevision,Manhattan Beach Park,Park seating area,40.5777000001,-73.9446000005,999639.536466,149752.994179,,,Brooklyn,
148,POINT (-73.94459999957878 40.65830000001525),BK,Limited Free,Cablevision,Wingate Park,Bleachers,40.6583,-73.9445999996,999620.965309,179117.688731,,,Brooklyn,
150,POINT (-73.9440999996476 40.65830000034984),BK,Limited Free,Cablevision,Wingate Park,Running Track/Concert Area,40.6583000003,-73.9440999996,999759.692394,179117.776985,,,Brooklyn,
151,POINT (-73.9439999995546 40.57629999976743),BK,Limited Free,Cablevision,Manhattan Beach Park,Beach area,40.5762999998,-73.9439999996,999806.53646,149243.045396,,,Brooklyn,
152,POINT (-73.94300000043629 40.577799999563204),BK,Limited Free,Cablevision,Manhattan Beach Park,Park seating area,40.5777999996,-73.9430000004,1000083.97587,149789.711625,,,Brooklyn,
153,POINT (-73.94230000024352 40.824799999714706),MN,Limited Free,TimeWarner,Jackie Robinson Park,Play area next to pool,40.8247999997,-73.9423000002,1000219.15243,239779.349559,,,New York,
154,POINT (-73.9422000002108 40.57679999976556),BK,Limited Free,Cablevision,Manhattan Beach Park,Park seating area,40.5767999998,-73.9422000002,1000306.44753,149425.532564,,,Brooklyn,
155,POINT (-73.94150000046149 40.57710000006573),BK,Limited Free,Cablevision,Manhattan Beach Park,Park seating area,40.5771000001,-73.9415000005,1000500.82969,149534.959182,,,Brooklyn,
156,POINT (-73.94069999999621 40.57799999993534),BK,Limited Free,Cablevision,Manhattan Beach Park,Park seating area,40.5779999999,-73.9407,1000722.84139,149863.000849,,,Brooklyn,
157,POINT (-73.93920300057256 40.81291300011171),MN,Limited Free,TimeWarner,Hansborough Recreation Center,Game Room,40.8129130001,-73.9392030006,1001079.28916,235449.067537,,,New York,
158,POINT (-73.93920300057256 40.81291300011171),MN,Limited Free,TimeWarner,Hansborough Recreation Center,Dance Room,40.8129130001,-73.9392030006,1001079.28916,235449.067537,,,New York,
159,POINT (-73.93920300057256 40.81291300011171),MN,Limited Free,TimeWarner,Hansborough Recreation Center,Fitness Room,40.8129130001,-73.9392030006,1001079.28916,235449.067537,,,New York,
160,POINT (-73.93920300057256 40.81291300011171),MN,Limited Free,TimeWarner,Hansborough Recreation Center,Computer Resource Room,40.8129130001,-73.9392030006,1001079.28916,235449.067537,,,New York,
161,POINT (-73.93920300057256 40.81291300011171),MN,Limited Free,TimeWarner,Hansborough Recreation Center,Roof Top,40.8129130001,-73.9392030006,1001079.28916,235449.067537,,,New York,
162,POINT (-73.93920300057256 40.81291300011171),MN,Limited Free,TimeWarner,Hansborough Recreation Center,Basketball Court,40.8129130001,-73.9392030006,1001079.28916,235449.067537,,,New York,
163,POINT (-73.93920300057256 40.81291300011171),MN,Limited Free,TimeWarner,Hansborough Recreation Center,Roof Top,40.8129130001,-73.9392030006,1001079.28916,235449.067537,,,New York,
164,POINT (-73.93919999960829 40.812899999847595),MN,Limited Free,TimeWarner,Hansborough Recreation Center,Lobby,40.8128999998,-73.9391999996,1001080.12315,235444.331654,,,New York,
167,POINT (-73.93490000006548 40.67399999983497),BK,Limited Free,Cablevision,St. John's Recreation Center,Inside recreation center,40.6739999998,-73.9349000001,1002308.01997,184839.491263,,,Brooklyn,
168,POINT (-73.93190000037409 40.60099999983861),BK,Limited Free,Cablevision,Marine Park,Exhibit Hall,40.6009999998,-73.9319000004,1003160.86276,158244.256724,,,Brooklyn,
169,POINT (-73.93179999999406 40.60410000032845),BK,Limited Free,Cablevision,Marine Park,Front picnic area of nature center,40.6041000003,-73.9318,1003187.75279,159373.687864,,,Brooklyn,
170,POINT (-73.93067099973086 40.60399300017765),BK,Limited Free,Cablevision,Marine Park,Back Seating area,40.6039930002,-73.9306709997,1003501.28399,159334.951065,,,Brooklyn,
171,POINT (-73.93043000006728 40.60413700023515),BK,Limited Free,Cablevision,Marine Park,Library,40.6041370002,-73.9304300001,1003568.16312,159387.467036,,,Brooklyn,
172,POINT (-73.93010000025025 40.60480000035782),BK,Limited Free,Cablevision,Marine Park,Front picnic area of nature center,40.6048000004,-73.9301000003,1003659.60454,159629.087944,,,Brooklyn,
173,POINT (-73.9284000001978 40.60589999972346),BK,Limited Free,Cablevision,Marine Park,Pathway to nature center,40.6058999997,-73.9284000002,1004131.32735,160030.227234,,,Brooklyn,
176,POINT (-73.91429999996276 40.81149999969573),BX,Limited Free,Cablevision,St. Mary's Park,Gymnasium,40.8114999997,-73.9143,1007973.21993,234940.025576,,,Bronx,
177,POINT (-73.91429999954067 40.81140000029947),BX,Limited Free,Cablevision,St. Mary's Park,Gymnasium,40.8114000003,-73.9142999995,1007973.25569,234903.59225,,,Bronx,
178,POINT (-73.91420000020233 40.81160000035578),BX,Limited Free,Cablevision,St. Mary's Park,Multi-purpose room,40.8116000004,-73.9142000002,1008000.86587,234976.486462,,,Bronx,
179,POINT (-73.9140999999005 40.81150000033882),BX,Limited Free,Cablevision,St. Mary's Park,Classroom 2nd floor,40.8115000003,-73.9140999999,1008028.58334,234940.080038,,,Bronx,
180,POINT (-73.91399999987051 40.81149999962977),BX,Limited Free,Cablevision,St. Mary's Park,Lobby,40.8114999996,-73.9139999999,1008056.26504,234940.106941,,,Bronx,
181,POINT (-73.91339999943168 40.812799999974345),BX,Limited Free,Cablevision,St. Mary's Park,Playground area,40.8128,-73.9133999994,1008221.88708,235413.906847,,,Bronx,
182,POINT (-73.91339999968552 40.812900000249236),BX,Limited Free,Cablevision,St. Mary's Park,Basketball courts,40.8129000002,-73.9133999997,1008221.85099,235450.340501,,,Bronx,
183,POINT (-73.91009999963268 40.74780000034494),QU,Limited Free,TimeWarner,Lawrence Virgilio Playground,Near the Woodside Avenue and 38th Road entrance,40.7478000003,-73.9100999996,1009159.66933,211733.138263,,,Queens,
184,POINT (-73.90949999993764 40.74739999993984),QU,Limited Free,TimeWarner,Lawrence Virgilio Playground,Near the Woodside Avenue and 54th Street entrance,40.7473999999,-73.9094999999,1009326.06893,211587.576547,,,Queens,
185,POINT (-73.90889999973407 40.74689999959743),QU,Limited Free,TimeWarner,Lawrence Virgilio Playground,Near the Woodside Avenue and 55th Street Entrance to Doughboy Plaza,40.7468999996,-73.9088999997,1009492.50856,211405.582816,,,Queens,
187,POINT (-73.90280000044497 40.65609999964122),BK,Limited Free,Cablevision,Brownsville Playground,Gymnasium,40.6560999996,-73.9028000004,1011219.43818,178326.26971,,,Brooklyn,
188,POINT (-73.90280000006058 40.65669999998774),BK,Limited Free,Cablevision,Brownsville Playground,Weight & Fitness room,40.6567,-73.9028000001,1011219.19572,178544.866385,,,Brooklyn,
189,POINT (-73.90279999978394 40.65590000011623),BK,Limited Free,Cablevision,Brownsville Playground,Multi-purpose room,40.6559000001,-73.9027999998,1011219.51921,178253.40437,,,Brooklyn,
190,POINT (-73.90270000035346 40.65639999991893),BK,Limited Free,Cablevision,Brownsville Playground,Teen Room,40.6563999999,-73.9027000004,1011247.06312,178435.598887,,,Brooklyn,
191,POINT (-73.9026999998415 40.65709999999561),BK,Limited Free,Cablevision,Brownsville Playground,Baseball field,40.6571,-73.9026999998,1011246.77998,178690.628233,,,Brooklyn,
192,POINT (-73.9025999998015 40.65620000041262),BK,Limited Free,Cablevision,Brownsville Playground,Game Room,40.6562000004,-73.9025999998,1011274.89049,178362.764387,,,Brooklyn,
193,POINT (-73.90250000032248 40.656099999676684),BK,Limited Free,Cablevision,Brownsville Playground,Lobby,40.6560999997,-73.9025000003,1011302.67718,178326.362229,,,Brooklyn,
194,POINT (-73.90220000041815 40.65710000009285),BK,Limited Free,Cablevision,Brownsville Playground,Handball Court,40.6571000001,-73.9022000004,1011385.50937,178690.78276,,,Brooklyn,
195,POINT (-73.90139999991044 40.656999999936694),BK,Limited Free,Cablevision,Brownsville Playground,Basketball Courts,40.6569999999,-73.9013999999,1011607.51778,178654.598777,,,Brooklyn,
196,POINT (-73.89910000028085 40.864599999793676),BX,Limited Free,Cablevision,St. James Park,Front seating area of recreation center,40.8645999998,-73.8991000003,1012158.55277,254290.80282,,,Bronx,
197,POINT (-73.88539999943441 40.718800000148136),QU,Limited Free,TimeWarner,Juniper Valley Park,Near the 71st Street and Lutheran Avenue Entrance,40.7188000001,-73.8853999994,1016017.41316,201175.526504,,,Queens,
198,POINT (-73.88530000042057 40.71920000013308),QU,Limited Free,TimeWarner,Juniper Valley Park,West of the Basketball Courts,40.7192000001,-73.8853000004,1016044.9423,201321.294914,,,Queens,
199,POINT (-73.88490000033852 40.720500000254695),QU,Limited Free,TimeWarner,Juniper Valley Park,"Near Lutheran Avenue, West of the Running Track",40.7205000003,-73.8849000003,1016155.20029,201795.069885,,,Queens,
200,POINT (-73.8822999997315 40.71829999969071),QU,Limited Free,TimeWarner,Juniper Valley Park,Near Juniper Boulevard South and 75th Street,40.7182999997,-73.8822999997,1016876.98526,200994.50062,,,Queens,
201,POINT (-73.87789999946217 40.72110000008641),QU,Limited Free,TimeWarner,Juniper Valley Park,West of the Basketball Courts,40.7211000001,-73.8778999995,1018095.26301,202016.295164,,,Queens,
202,POINT (-73.8778000004694 40.72030000022282),QU,Limited Free,TimeWarner,Juniper Valley Park,Near the Playground,40.7203000002,-73.8778000005,1018123.38861,201724.869566,,,Queens,
203,POINT (-73.87730000058284 40.72060000033297),QU,Limited Free,TimeWarner,Juniper Valley Park,Near the Asphalt Baseball Field,40.7206000003,-73.8773000006,1018261.83354,201834.362457,,,Queens,
204,POINT (-73.87710000005328 40.71970000043605),QU,Limited Free,TimeWarner,Juniper Valley Park,Near Juniper Boulevard South and 75th Street,40.7197000004,-73.8771000001,1018317.73271,201506.542903,,,Queens,
205,POINT (-73.87129999960226 40.87300000004361),BX,Limited Free,Cablevision,Bronx Park,Rosewood Playground,40.873,-73.8712999996,1019843.42486,257361.326206,,,Bronx,
206,POINT (-73.87069999948896 40.847300000100056),BX,Limited Free,Cablevision,Bronx Park,Ranaqua - Lobby - Parks Building,40.8473000001,-73.8706999995,1020023.18271,247998.077544,,,Bronx,
207,POINT (-73.87020000017962 40.84749999999077),BX,Limited Free,Cablevision,Bronx Park,Ranaqua - Parking lot area - Parks Building,40.8475,-73.8702000002,1020161.40848,248071.149577,,,Bronx,
208,POINT (-73.8654000005085 40.874800000289234),BX,Limited Free,Cablevision,Gun Hill Playground,Playground,40.8748000003,-73.8654000005,1021474.12666,258019.588997,,,Bronx,
209,POINT (-73.85440000032447 40.686700000332095),QU,Limited Free,TimeWarner,London Planetree Playground,Near Atlantic Avenue and 88th Street,40.6867000003,-73.8544000003,1024630.12395,189493.316601,,,Queens,
210,POINT (-73.8538999998578 40.68619999959091),QU,Limited Free,TimeWarner,London Planetree Playground,Near the Basketball Courts,40.6861999996,-73.8538999999,1024769.09579,189311.38291,,,Queens,
211,POINT (-73.85360000043148 40.6870000004288),QU,Limited Free,TimeWarner,London Planetree Playground,Near the Handball Courts,40.6870000004,-73.8536000004,1024851.80986,189602.985017,,,Queens,
212,POINT (-73.85299999960957 40.68560000015531),QU,Limited Free,TimeWarner,London Planetree Playground,Near the Comfort Station,40.6856000002,-73.8529999996,1025019.06674,189093.203556,,,Queens,
215,POINT (-73.84249999994944 40.84060000013768),BX,Limited Free,Cablevision,Owen F. Dolen Park,Inside recreation center,40.8406000001,-73.8424999999,1027829.60377,245569.791718,,,Bronx,
216,POINT (-73.84010000053907 40.88880000041119),BX,Limited Free,Cablevision,Seton Falls Park,Playground,40.8888000004,-73.8401000005,1028461.61695,263132.10305,,,Bronx,
217,POINT (-73.83850000049732 40.885299999556544),BX,Limited Free,Cablevision,Seton Falls Park,Playground,40.8852999996,-73.8385000005,1028906.36015,261857.725022,,,Bronx,
218,POINT (-73.83610700006874 40.57811599968928),QU,Limited Free,TimeWarner,Rockaway Beach,Beach 116 Street 2,40.5781159997,-73.8361070001,1029777.4424,149942.277265,,,Queens,
219,POINT (-73.83600000026746 40.8876000003538),BX,Limited Free,Cablevision,Seton Falls Park,Benches,40.8876000004,-73.8360000003,1029596.06546,262696.99106,,,Bronx,
220,POINT (-73.83598899970706 40.57789600035559),QU,Limited Free,TimeWarner,Rockaway Beach,Beach 116 Street 1,40.5778960004,-73.8359889997,1029810.37147,149862.18753,,,Queens,
221,POINT (-73.83583899970091 40.57825399993952),QU,Limited Free,TimeWarner,Rockaway Beach,Beach 116 Street 5,40.5782539999,-73.8358389997,1029851.79527,149992.693503,,,Queens,
222,POINT (-73.83575299985247 40.57816499963654),QU,Limited Free,TimeWarner,Rockaway Beach,Beach 116 Street 4,40.5781649996,-73.8357529999,1029875.74568,149960.313318,,,Queens,
223,POINT (-73.835667000422 40.578026000279344),QU,Limited Free,TimeWarner,Rockaway Beach,Beach 116 Street 3,40.5780260003,-73.8356670004,1029899.73021,149909.717291,,,Queens,
224,POINT (-73.83556600006187 40.71084899955169),QU,Limited Free,TimeWarner,Overlook Park,First Floor Conference Room in Park Building,40.7108489996,-73.8355660001,1029836.94917,198300.7419,,,Queens,
225,POINT (-73.83550000023708 40.71080000022953),QU,Limited Free,TimeWarner,Overlook Park,Outside Park Building,40.7108000002,-73.8355000002,1029855.28017,198282.92435,,,Queens,
226,POINT (-73.83549999951013 40.70980000004234),QU,Limited Free,TimeWarner,Overlook Park,Near the Comfort Station,40.7098,-73.8354999995,1029855.96455,197918.594698,,,Queens,
227,POINT (-73.83479999992693 40.88689999997139),BX,Limited Free,Cablevision,Seton Falls Park,Benches,40.8869,-73.8347999999,1029928.34662,262442.576542,,,Bronx,
228,POINT (-73.82655900015989 40.58036499973838),QU,Limited Free,TimeWarner,Rockaway Beach,Beach 106 Street 1,40.5803649997,-73.8265590002,1032428.13263,150766.74937,,,Queens,
229,POINT (-73.8263550005659 40.580405000024264),QU,Limited Free,TimeWarner,Rockaway Beach,Beach 106 Street 2,40.580405,-73.8263550006,1032484.77032,150781.434708,,,Queens,
230,POINT (-73.8262149995392 40.58047100039418),QU,Limited Free,TimeWarner,Rockaway Beach,Beach 106 Street 3,40.5804710004,-73.8262149995,1032523.61177,150805.557363,,,Queens,
231,POINT (-73.825968999531 40.58059299956381),QU,Limited Free,TimeWarner,Rockaway Beach,Beach 106 Street 4,40.5805929996,-73.8259689995,1032591.85672,150850.140279,,,Queens,
232,POINT (-73.82470000032961 40.75140000011559),QU,Limited Free,TimeWarner,Kissena Park,Baseball Field at Elder Ave,40.7514000001,-73.8247000003,1032819.82083,213080.550923,,,Queens,
233,POINT (-73.82280000028287 40.75009999976948),QU,Limited Free,TimeWarner,Kissena Park,Swing and seating area at Colden St and Geranium Ave,40.7500999998,-73.8228000003,1033347.20527,212607.979033,,,Queens,
234,POINT (-73.8211999997421 40.74850000002422),QU,Limited Free,TimeWarner,Kissena Park,Northeast of Garden - Southeast of Baseball Field,40.7485,-73.8211999997,1033791.71029,212025.949685,,,Queens,
235,POINT (-73.81820000010872 40.74759999984405),QU,Limited Free,TimeWarner,Kissena Park,Baseball Field at Colden St and Negundo Ave,40.7475999998,-73.8182000001,1034623.62627,211699.762346,,,Queens,
236,POINT (-73.81795400056271 40.58298799974714),QU,Limited Free,TimeWarner,Rockaway Beach,Beach 97 Street  1,40.5829879997,-73.8179540006,1034816.42477,151727.221858,,,Queens,
237,POINT (-73.81795400056271 40.58298799974714),QU,Limited Free,TimeWarner,Rockaway Beach,Beach 97 Street  2,40.5829879997,-73.8179540006,1034816.42477,151727.221858,,,Queens,
238,POINT (-73.81765400037091 40.582816999568955),QU,Limited Free,TimeWarner,Rockaway Beach,Beach 97 Street  3,40.5828169996,-73.8176540004,1034899.88458,151665.09567,,,Queens,
239,POINT (-73.81729999942303 40.74369999988073),QU,Limited Free,TimeWarner,Kissena Park,Cricket Pitch,40.7436999999,-73.8172999994,1034875.96402,210279.38953,,,Queens,
240,POINT (-73.81722499969402 40.58293999970979),QU,Limited Free,TimeWarner,Rockaway Beach,Beach 97 Street  4,40.5829399997,-73.8172249997,1035018.95357,151710.155947,,,Queens,
241,POINT (-73.81698799992715 40.583028999618094),QU,Limited Free,TimeWarner,Rockaway Beach,Beach 97 Street  5,40.5830289996,-73.8169879999,1035084.71656,151742.718218,,,Queens,
242,POINT (-73.81400000026773 40.743700000183324),QU,Limited Free,TimeWarner,Kissena Park,Baseball Field at Kissena Blvd and Booth Memorial Ave,40.7437000002,-73.8140000003,1035790.38871,210281.314067,,,Queens,
243,POINT (-73.81359999986259 40.74549999989518),QU,Limited Free,TimeWarner,Kissena Park,Southwest Entrance of Park,40.7454999999,-73.8135999999,1035899.83271,210937.345563,,,Queens,
244,POINT (-73.81170000033276 40.747600000047065),QU,Limited Free,TimeWarner,Kissena Park,Baseball Field at Rose Ave and Browne St,40.7476,-73.8117000003,1036424.66073,211703.567128,,,Queens,
245,POINT (-73.81150000011785 40.74239999972709),QU,Limited Free,TimeWarner,Kissena Park,Baseball Field at Booth Memorial Ave and 156th St,40.7423999997,-73.8115000001,1036484.15405,209809.164421,,,Queens,
246,POINT (-73.81142000026202 40.584421999804384),QU,Limited Free,TimeWarner,Rockaway Beach,Beach 90 Street  1,40.5844219998,-73.8114200003,1036630.22889,152253.502301,,,Queens,
247,POINT (-73.81116300018759 40.584519999757795),QU,Limited Free,TimeWarner,Rockaway Beach,Beach 90 Street  2,40.5845199998,-73.8111630002,1036701.53649,152289.359841,,,Queens,
248,POINT (-73.8110340001258 40.58468299984599),QU,Limited Free,TimeWarner,Rockaway Beach,Beach 90 Street  3,40.5846829998,-73.8110340001,1036737.2395,152348.821993,,,Queens,
249,POINT (-73.81091599951334 40.584577000249574),QU,Limited Free,TimeWarner,Rockaway Beach,Beach 90 Street  4,40.5845770002,-73.8109159995,1036770.09869,152310.274498,,,Queens,
250,POINT (-73.81073399955517 40.58475700024295),QU,Limited Free,TimeWarner,Rockaway Beach,Beach 90 Street  6,40.5847570002,-73.8107339996,1036820.50935,152375.96203,,,Queens,
251,POINT (-73.8106689998318 40.58465100033656),QU,Limited Free,TimeWarner,Rockaway Beach,Beach 90 Street  5,40.5846510003,-73.8106689998,1036838.64711,152337.382711,,,Queens,
252,POINT (-73.80909999987347 40.77119999990619),QU,Limited Free,TimeWarner,Bowne Park,Track and Field - Northwest Corner of Park,40.7711999999,-73.8090999999,1037126.33649,220303.357999,,,Queens,
253,POINT (-73.8088000005085 40.76969999977007),QU,Limited Free,TimeWarner,Bowne Park,Track and Field - Southwest Corner of Park,40.7696999998,-73.8088000005,1037210.62438,219757.040522,,,Queens,
254,POINT (-73.80819999946026 40.74189999983959),QU,Limited Free,TimeWarner,Kissena Park,Basketball Court at 160th St and Booth Memorial Ave,40.7418999998,-73.8081999995,1037398.99572,209628.984007,,,Queens,
255,POINT (-73.80749999988794 40.76959999972089),QU,Limited Free,TimeWarner,Bowne Park,Track and Field - South of Park,40.7695999997,-73.8074999999,1037570.79197,219721.395909,,,Queens,
256,POINT (-73.80720000055726 40.750199999670926),QU,Limited Free,TimeWarner,Kissena Park,Northwest Entrance of Park,40.7501999997,-73.8072000006,1037669.44564,212653.540622,,,Queens,
257,POINT (-73.80599999969961 40.76949999961539),QU,Limited Free,TimeWarner,Bowne Park,Track and Field - Southeast Corner of Park,40.7694999996,-73.8059999997,1037986.35872,219685.879248,,,Queens,
258,POINT (-73.80550000033605 40.77050000013028),QU,Limited Free,TimeWarner,Bowne Park,Playground,40.7705000001,-73.8055000003,1038124.04513,220050.518938,,,Queens,
259,POINT (-73.80509999944586 40.74999999980227),QU,Limited Free,TimeWarner,Kissena Park,Track and Field - North of Lake,40.7499999998,-73.8050999994,1038251.45793,212581.962025,,,Queens,
260,POINT (-73.80420000004946 40.74379999976616),QU,Limited Free,TimeWarner,Kissena Park,Golf Course near 164th St and Booth Memorial Ave,40.7437999998,-73.8042,1038505.87179,210323.665032,,,Queens,
261,POINT (-73.80340000019683 40.74589999967828),QU,Limited Free,TimeWarner,Kissena Park,Track and Field - Northwest Corner of Golf Course,40.7458999997,-73.8034000002,1038725.83297,211089.256677,,,Queens,
262,POINT (-73.80289999981828 40.747299999847414),QU,Limited Free,TimeWarner,Kissena Park,Track and Field - Southeast of Kissena Lake,40.7472999998,-73.8028999998,1038863.23,211599.631641,,,Queens,
263,POINT (-73.80270000006 40.74909999991246),QU,Limited Free,TimeWarner,Kissena Park,Playground,40.7490999999,-73.8027000001,1038917.16952,212255.552573,,,Queens,
264,POINT (-73.80017599984639 40.58647800001727),QU,Limited Free,TimeWarner,Rockaway Beach,Beach 73 Street  1,40.586478,-73.8001759998,1039751.66326,153009.476839,,,Queens,
265,POINT (-73.80009099983815 40.58648400005083),QU,Limited Free,TimeWarner,Rockaway Beach,Beach 73 Street  2,40.5864840001,-73.8000909998,1039775.26722,153011.716664,,,Queens,
266,POINT (-73.78959999978056 40.67450000031612),QU,Limited Free,TimeWarner,Baisley Pond Park,Playground,40.6745000003,-73.7895999998,1042612.14475,185085.03572,,,Queens,
267,POINT (-73.78940000027725 40.667600000289745),QU,Limited Free,TimeWarner,Baisley Pond Park,Baseball field at 150th St and 133rd Ave,40.6676000003,-73.7894000003,1042673.66562,182571.310104,,,Queens,
268,POINT (-73.78900000038999 40.669799999587276),QU,Limited Free,TimeWarner,Baisley Pond Park,Tennis Courts at 150th St and 130th Ave,40.6697999996,-73.7890000004,1042782.70084,183373.096886,,,Queens,
269,POINT (-73.78860000007369 40.67139999992006),QU,Limited Free,TimeWarner,Baisley Pond Park,Cricket Pitch at 150th St and Sutter Ave,40.6713999999,-73.7886000001,1042892.25639,183956.288305,,,Queens,
270,POINT (-73.7883000001361 40.68160000006848),QU,Limited Free,TimeWarner,Baisley Pond Park,Basketball Courts at Foch Blvd and 155th St,40.6816000001,-73.7883000001,1042966.49509,187672.630938,,,Queens,
271,POINT (-73.78749999991149 40.68050000019623),QU,Limited Free,TimeWarner,Baisley Pond Park,Tennis Courts 155th St and 118th Ave,40.6805000002,-73.7874999999,1043189.35258,187272.407657,,,Queens,
272,POINT (-73.7875000004888 40.67960000010827),QU,Limited Free,TimeWarner,Baisley Pond Park,Benches near the lake,40.6796000001,-73.7875000005,1043190.14786,186944.512644,,,Queens,
273,POINT (-73.78739999944605 40.675099999849614),QU,Limited Free,TimeWarner,Baisley Pond Park,Benches near flagpole,40.6750999998,-73.7873999994,1043221.86367,185305.10549,,,Queens,
274,POINT (-73.78719999985469 40.68500000037162),QU,Limited Free,TimeWarner,Baisley Pond Park,Basketball Courts at 116th Ave and Barron St,40.6850000004,-73.7871999999,1043268.57814,188912.085152,,,Queens,
275,POINT (-73.78709999969593 40.67809999961644),QU,Limited Free,TimeWarner,Baisley Pond Park,Track and Field,40.6780999996,-73.7870999997,1043302.42224,186398.290311,,,Queens,
276,POINT (-73.78680000025462 40.672699999652345),QU,Limited Free,TimeWarner,Baisley Pond Park,Playground,40.6726999997,-73.7868000003,1043390.42173,184431.12397,,,Queens,
277,POINT (-73.78590000027498 40.68460000010646),QU,Limited Free,TimeWarner,Baisley Pond Park,Baseball Field at 157th St between Foch Blvd and 116th Ave,40.6846000001,-73.7859000003,1043629.47933,188767.232423,,,Queens,
278,POINT (-73.78520000028864 40.67319999966674),QU,Limited Free,TimeWarner,Baisley Pond Park,Perimeter of park near Cricket Pitch adjacent to pond,40.6731999997,-73.7852000003,1043833.8047,184614.371963,,,Queens,
279,POINT (-73.78480000020879 40.68300000032133),QU,Limited Free,TimeWarner,Baisley Pond Park,Track and Field,40.6830000003,-73.7848000002,1043935.98987,188185.055438,,,Queens,
280,POINT (-73.78470000053956 40.68080000007439),QU,Limited Free,TimeWarner,Baisley Pond Park,Benches,40.6808000001,-73.7847000005,1043965.69486,187383.602317,,,Queens,
281,POINT (-73.78439999948743 40.67929999998444),QU,Limited Free,TimeWarner,Baisley Pond Park,East Entrance of the Park,40.6793,-73.7843999995,1044050.24817,186837.315352,,,Queens,
282,POINT (-73.7841000003706 40.67490000025069),QU,Limited Free,TimeWarner,Baisley Pond Park,Parking Lot,40.6749000003,-73.7841000004,1044137.40876,185234.47899,,,Queens,
283,POINT (-73.7834000005918 40.67819999962231),QU,Limited Free,TimeWarner,Baisley Pond Park,North East of Pond,40.6781999996,-73.7834000006,1044328.6049,186437.239052,,,Queens,
284,POINT (-73.78250000049887 40.67609999987558),QU,Limited Free,TimeWarner,Baisley Pond Park,East of Baisley Pond,40.6760999999,-73.7825000005,1044580.13819,185672.76978,,,Queens,
285,POINT (-73.77670000002175 40.730600000220775),QU,Limited Free,TimeWarner,Cunningham Park,Baseball Field at Union Tpk and 194th St,40.7306000002,-73.7767,1046138.32241,205532.733341,,,Queens,
286,POINT (-73.77590000000079 40.726799999882395),QU,Limited Free,TimeWarner,Cunningham Park,Playground at 193rd St and Aberdeen Rd,40.7267999999,-73.7759,1046363.58639,204148.845689,,,Queens,
287,POINT (-73.77478600044886 40.68751300017629),QU,Limited Free,TimeWarner,Roy Wilkins Recreation Center,Room B3,40.6875130002,-73.7747860004,1046709.15197,189836.248986,,,Queens,
288,POINT (-73.77400000002307 40.72999999983091),QU,Limited Free,TimeWarner,Cunningham Park,Near Parking Lot and Tennis Courts,40.7299999998,-73.774,1046887.19853,205316.054313,,,Queens,
289,POINT (-73.77389999964764 40.729899999829975),QU,Limited Free,TimeWarner,Cunningham Park,Near Parking Lot and Tennis Courts,40.7298999998,-73.7738999996,1046915.00819,205279.692837,,,Queens,
290,POINT (-73.77380000043553 40.73009999974754),QU,Limited Free,TimeWarner,Cunningham Park,Near Parking Lot and Tennis Courts,40.7300999997,-73.7738000004,1046942.53536,205352.630355,,,Queens,
291,POINT (-73.7737560003646 40.68813099975454),QU,Limited Free,TimeWarner,Roy Wilkins Recreation Center,Room B4,40.6881309998,-73.7737560004,1046994.22227,190062.139611,,,Queens,
292,POINT (-73.77369999962919 40.73130000037373),QU,Limited Free,TimeWarner,Cunningham Park,Parking lot at Union Tpk and 196th Pl,40.7313000004,-73.7736999996,1046969.1216,205789.898181,,,Queens,
293,POINT (-73.77370000034783 40.73009999957519),QU,Limited Free,TimeWarner,Cunningham Park,Near Parking Lot and Tennis Courts,40.7300999996,-73.7737000003,1046970.25086,205352.701877,,,Queens,
294,POINT (-73.7731550000453 40.688603000161194),QU,Limited Free,TimeWarner,Roy Wilkins Recreation Center,Room B1,40.6886030002,-73.773155,1047160.45192,190234.533623,,,Queens,
295,POINT (-73.77304799955492 40.68848899993364),QU,Limited Free,TimeWarner,Roy Wilkins Recreation Center,Room B5,40.6884889999,-73.7730479996,1047190.23369,190193.077013,,,Queens,
296,POINT (-73.77272599990344 40.68757799991569),QU,Limited Free,TimeWarner,Roy Wilkins Recreation Center,Workout Room,40.6875779999,-73.7727259999,1047280.39427,189861.40576,,,Queens,
297,POINT (-73.77214699964624 40.68834299996599),QU,Limited Free,TimeWarner,Roy Wilkins Recreation Center,Center Office,40.688343,-73.7721469996,1047440.24434,190140.533811,,,Queens,
298,POINT (-73.77069999998774 40.67949999992535),QU,Limited Free,TimeWarner,Railroad Park,West of the Park,40.6794999999,-73.7707,1047849.97187,186919.830607,,,Queens,
299,POINT (-73.77051600045704 40.68520199959489),QU,Limited Free,TimeWarner,Roy Wilkins Recreation Center,Parking Lot next to basketball fields,40.6852019996,-73.7705160005,1047895.56463,188997.360572,,,Queens,
300,POINT (-73.77047300046961 40.68761099958146),QU,Limited Free,TimeWarner,Roy Wilkins Recreation Center,Maintenance Office,40.6876109996,-73.7704730005,1047905.19059,189875.057636,,,Queens,
301,POINT (-73.76989999958475 40.68720000042652),QU,Limited Free,TimeWarner,Roy Wilkins Recreation Center,West of the Roy Wilkins Recreation Center,40.6872000004,-73.7698999996,1048064.49506,189725.736084,,,Queens,
302,POINT (-73.76987199964044 40.68715499964915),QU,Limited Free,TimeWarner,Roy Wilkins Recreation Center,Rehearsal Room,40.6871549996,-73.7698719996,1048072.30345,189709.361445,,,Queens,
303,POINT (-73.7697650005904 40.68731799976117),QU,Limited Free,TimeWarner,Roy Wilkins Recreation Center,Center Office,40.6873179998,-73.7697650006,1048101.82176,189768.824909,,,Queens,
304,POINT (-73.76961500027566 40.68704099959913),QU,Limited Free,TimeWarner,Roy Wilkins Recreation Center,Room B2,40.6870409996,-73.7696150003,1048143.68716,189668.015399,,,Queens,
305,POINT (-73.76959299998195 40.68629299987403),QU,Limited Free,TimeWarner,Roy Wilkins Recreation Center,Family Waiting Area,40.6862929999,-73.769593,1048150.50539,189395.514303,,,Queens,
306,POINT (-73.76939999978192 40.686699999844194),QU,Limited Free,TimeWarner,Roy Wilkins Recreation Center,Theater Lounge,40.6866999998,-73.7693999998,1048203.64111,189543.936579,,,Queens,
307,POINT (-73.76929299943906 40.6873179999844),QU,Limited Free,TimeWarner,Roy Wilkins Recreation Center,Gymnasium,40.687318,-73.7692929994,1048232.72307,189769.169396,,,Queens,
308,POINT (-73.76886400030453 40.686975999976724),QU,Limited Free,TimeWarner,Roy Wilkins Recreation Center,"Food Pantry, Patio",40.686976,-73.7688640003,1048352.0273,189644.882899,,,Queens,
309,POINT (-73.76779999991035 40.68000000031094),QU,Limited Free,TimeWarner,Railroad Park,Track and Field - North of Park,40.6800000003,-73.7677999999,1048653.84789,187104.113374,,,Queens,
310,POINT (-73.76540000016526 40.67600000011919),QU,Limited Free,TimeWarner,Railroad Park,Southeast Entrance of Park,40.6760000001,-73.7654000002,1049323.42201,185648.577244,,,Queens,
311,POINT (-73.75160000052531 40.60210000016771),QU,Limited Free,TimeWarner,Sorrentino Recreation Center,Jeter Reading Room,40.6021000002,-73.7516000005,1053227.6081,158735.464403,,,Queens,
312,POINT (-73.7514419994294 40.6023699999769),QU,Limited Free,TimeWarner,Sorrentino Recreation Center,The Hallway between the Art and Game Room,40.60237,-73.7514419994,1053271.20381,158833.956332,,,Queens,
313,POINT (-73.75133200014555 40.60248199994383),QU,Limited Free,TimeWarner,Sorrentino Recreation Center,Gymnasium,40.6024819999,-73.7513320001,1053301.63321,158874.847327,,,Queens,
314,POINT (-73.75130000048418 40.60254799956941),QU,Limited Free,TimeWarner,Sorrentino Recreation Center,Computer Resource Center,40.6025479996,-73.7513000005,1053310.45078,158898.917816,,,Queens,
315,POINT (-73.86552800012059 40.73179199992481),QU,Limited Free,TimeWarner,Lost Battalion Hall Recreation Center,After School Room,40.7317919999,-73.8655280001,1021518.71187,205916.740119,,,Queens,
316,POINT (-73.86552800012059 40.73179199992481),QU,Limited Free,TimeWarner,Lost Battalion Hall Recreation Center,Dining Area,40.7317919999,-73.8655280001,1021518.71187,205916.740119,,,Queens,
317,POINT (-73.86552800012059 40.73179199992481),QU,Limited Free,TimeWarner,Lost Battalion Hall Recreation Center,Near the Playground,40.7317919999,-73.8655280001,1021518.71187,205916.740119,,,Queens,
318,POINT (-73.86552800012059 40.73179199992481),QU,Limited Free,TimeWarner,Lost Battalion Hall Recreation Center,Gymnasium,40.7317919999,-73.8655280001,1021518.71187,205916.740119,,,Queens,
319,POINT (-73.86552800012059 40.73179199992481),QU,Limited Free,TimeWarner,Lost Battalion Hall Recreation Center,Near the 62nd Avenue and 93rd Street Intersection,40.7317919999,-73.8655280001,1021518.71187,205916.740119,,,Queens,
320,POINT (-73.96038100019778 40.71500500041296),BK,Limited Free,TimeWarner,Metropolitan Recreation Center,Aerobics Room,40.7150050004,-73.9603810002,995233.116145,199774.595907,,,Brooklyn,
321,POINT (-73.9349349996731 40.67369499980551),BX,Limited Free,Cablevision,St. James Park,Lobby/east wing of recreation center,40.6736949998,-73.9349349997,1002298.39401,184728.363861,,,Bronx,
322,POINT (-73.9349349996731 40.67369499980551),BX,Limited Free,Cablevision,St. James Park,Lobby/west wing of recreation center,40.6736949998,-73.9349349997,1002298.39401,184728.363861,,,Bronx,
323,POINT (-73.94232443989439 40.82480739960786),MN,Limited Free,TimeWarner,Jackie Robinson Park,Computer Lab,40.8248073996,-73.9423244399,1000212.3867,239782.041155,,,New York,
324,POINT (-73.94232443989439 40.82480739960786),MN,Limited Free,TimeWarner,Jackie Robinson Park,Maintenance Office,40.8248073996,-73.9423244399,1000212.3867,239782.041155,,,New York,
325,POINT (-73.94232443989439 40.82480739960786),MN,Limited Free,TimeWarner,Jackie Robinson Park,Gymnasium,40.8248073996,-73.9423244399,1000212.3867,239782.041155,,,New York,
326,POINT (-73.94232443989439 40.82480739960786),MN,Limited Free,TimeWarner,Jackie Robinson Park,Dugout,40.8248073996,-73.9423244399,1000212.3867,239782.041155,,,New York,
327,POINT (-73.94232443989439 40.82480739960786),MN,Limited Free,TimeWarner,Jackie Robinson Park,Administrative Office,40.8248073996,-73.9423244399,1000212.3867,239782.041155,,,New York,
328,POINT (-73.94232443989439 40.82480739960786),MN,Limited Free,TimeWarner,Jackie Robinson Park,Library,40.8248073996,-73.9423244399,1000212.3867,239782.041155,,,New York,
329,POINT (-73.95000000034437 40.75000200001013),MN,Limited Free,TimeWarner,Recreation Center 54,Multi Purpose Room,40.750002,-73.9500000003,998103.642228,212526.569091,,,New York,
330,POINT (-73.95000000034437 40.75000200001013),MN,Limited Free,TimeWarner,Recreation Center 54,Lobby,40.750002,-73.9500000003,998103.642228,212526.569091,,,New York,
